start=new Date('2022-08-03T00:00:00.000Z').valueOf();
sats=[{"INCLINATION":"53.2198","ECCENTRICITY":"0.00019110","MEAN_MOTION_DOT":"0.00001472","TLE_LINE2":"2 49418  53.2198  13.5091 0001911  60.3534 299.7648 15.08841102 40063","RCS_SIZE":"LARGE","ARG_OF_PERICENTER":"60.3534","NORAD_CAT_ID":"49418","REV_AT_EPOCH":"4006","RA_OF_ASC_NODE":"13.5091","ELEMENT_SET_NO":"999","PERIOD":"95.437","CLASSIFICATION_TYPE":"U","EPHEMERIS_TYPE":"0","MEAN_MOTION_DDOT":"0.0000000000000","FILE":"3527697","TLE_LINE1":"1 49418U 21104L   22214.44169589  .00001472  00000-0  11057-3 0  9992","MEAN_MOTION":"15.08841102","PERIAPSIS":"538.420","TIME_SYSTEM":"UTC","OBJECT_TYPE":"PAYLOAD","REF_FRAME":"TEME","APOAPSIS":"541.064","CENTER_NAME":"EARTH","OBJECT_ID":"2021-104L","COUNTRY_CODE":"US","SEMIMAJOR_AXIS":"6917.877","SITE":"AFETR","OBJECT_NAME":"STARLINK-3111","EPOCH":"2022-08-02T10:36:02.524896","LAUNCH_DATE":"2021-11-13","MEAN_ELEMENT_THEORY":"SGP4","MEAN_ANOMALY":"299.7648","BSTAR":"0.00011057000000","DECAY_DATE":null,"GP_ID":"209429085"},{"REF_FRAME":"TEME","APOAPSIS":"540.869","PERIAPSIS":"538.640","TIME_SYSTEM":"UTC","OBJECT_TYPE":"PAYLOAD","SEMIMAJOR_AXIS":"6917.890","SITE":"AFETR","CENTER_NAME":"EARTH","OBJECT_ID":"2021-104M","COUNTRY_CODE":"US","MEAN_ANOMALY":"299.5686","BSTAR":"-0.00000667340000","OBJECT_NAME":"STARLINK-3120","EPOCH":"2022-08-02T19:52:27.628320","LAUNCH_DATE":"2021-11-13","MEAN_ELEMENT_THEORY":"SGP4","GP_ID":"209456801","DECAY_DATE":null,"MEAN_MOTION_DOT":"-0.00000394","TLE_LINE2":"2 49419  53.2184  11.7756 0001611  60.5466 299.5686 15.08836924 40123","INCLINATION":"53.2184","ECCENTRICITY":"0.00016110","NORAD_CAT_ID":"49419","RCS_SIZE":"LARGE","ARG_OF_PERICENTER":"60.5466","RA_OF_ASC_NODE":"11.7756","ELEMENT_SET_NO":"999","PERIOD":"95.438","REV_AT_EPOCH":"4012","TLE_LINE1":"1 49419U 21104M   22214.82809755 -.00000394  00000-0 -66734-5 0  9999","MEAN_MOTION":"15.08836924","CLASSIFICATION_TYPE":"U","EPHEMERIS_TYPE":"0","MEAN_MOTION_DDOT":"0.0000000000000","FILE":"3527804"},{"RCS_SIZE":"LARGE","ARG_OF_PERICENTER":"73.4165","NORAD_CAT_ID":"49420","INCLINATION":"53.2189","ECCENTRICITY":"0.00016150","MEAN_MOTION_DOT":"0.00001830","TLE_LINE2":"2 49420  53.2189  13.5096 0001615  73.4165 286.7005 15.08840419 40060","CLASSIFICATION_TYPE":"U","EPHEMERIS_TYPE":"0","MEAN_MOTION_DDOT":"0.0000000000000","FILE":"3527697","TLE_LINE1":"1 49420U 21104N   22214.43801646  .00001830  00000-0  13307-3 0  9999","MEAN_MOTION":"15.08840419","REV_AT_EPOCH":"4006","ELEMENT_SET_NO":"999","RA_OF_ASC_NODE":"13.5096","PERIOD":"95.438","CENTER_NAME":"EARTH","OBJECT_ID":"2021-104N","COUNTRY_CODE":"US","SEMIMAJOR_AXIS":"6917.879","SITE":"AFETR","PERIAPSIS":"538.627","TIME_SYSTEM":"UTC","OBJECT_TYPE":"PAYLOAD","REF_FRAME":"TEME","APOAPSIS":"540.861","GP_ID":"209430087","DECAY_DATE":null,"OBJECT_NAME":"STARLINK-3110","MEAN_ELEMENT_THEORY":"SGP4","LAUNCH_DATE":"2021-11-13","EPOCH":"2022-08-02T10:30:44.622144","MEAN_ANOMALY":"286.7005","BSTAR":"0.00013307000000"},{"GP_ID":"209457803","DECAY_DATE":null,"LAUNCH_DATE":"2021-11-13","MEAN_ELEMENT_THEORY":"SGP4","EPOCH":"2022-08-02T19:41:51.536832","OBJECT_NAME":"STARLINK-3112","BSTAR":"-0.00009709000000","MEAN_ANOMALY":"302.2688","OBJECT_ID":"2021-104P","CENTER_NAME":"EARTH","COUNTRY_CODE":"US","SITE":"AFETR","SEMIMAJOR_AXIS":"6917.888","OBJECT_TYPE":"PAYLOAD","PERIAPSIS":"538.608","TIME_SYSTEM":"UTC","REF_FRAME":"TEME","APOAPSIS":"540.897","MEAN_MOTION_DDOT":"0.0000000000000","FILE":"3527804","CLASSIFICATION_TYPE":"U","EPHEMERIS_TYPE":"0","TLE_LINE1":"1 49421U 21104P   22214.82073538 -.00001833  00000-0 -97090-4 0  9991","MEAN_MOTION":"15.08837663","REV_AT_EPOCH":"4012","ELEMENT_SET_NO":"999","RA_OF_ASC_NODE":"11.8068","PERIOD":"95.438","ARG_OF_PERICENTER":"57.8465","RCS_SIZE":"LARGE","NORAD_CAT_ID":"49421","INCLINATION":"53.2200","ECCENTRICITY":"0.00016540","TLE_LINE2":"2 49421  53.2200  11.8068 0001654  57.8465 302.2688 15.08837663 40122","MEAN_MOTION_DOT":"-0.00001833"},{"NORAD_CAT_ID":"49422","ARG_OF_PERICENTER":"68.6419","RCS_SIZE":"LARGE","TLE_LINE2":"2 49422  53.2184  13.5420 0001654  68.6419 291.4750 15.08840688 40067","MEAN_MOTION_DOT":"0.00000619","INCLINATION":"53.2184","ECCENTRICITY":"0.00016540","TLE_LINE1":"1 49422U 21104Q   22214.43433450  .00000619  00000-0  56980-4 0  9994","MEAN_MOTION":"15.08840688","MEAN_MOTION_DDOT":"0.0000000000000","FILE":"3527697","CLASSIFICATION_TYPE":"U","EPHEMERIS_TYPE":"0","ELEMENT_SET_NO":"999","RA_OF_ASC_NODE":"13.5420","PERIOD":"95.438","REV_AT_EPOCH":"4006","SITE":"AFETR","SEMIMAJOR_AXIS":"6917.878","OBJECT_ID":"2021-104Q","CENTER_NAME":"EARTH","COUNTRY_CODE":"US","REF_FRAME":"TEME","APOAPSIS":"540.888","OBJECT_TYPE":"PAYLOAD","PERIAPSIS":"538.599","TIME_SYSTEM":"UTC","GP_ID":"209428586","DECAY_DATE":null,"BSTAR":"0.00005698000000","MEAN_ANOMALY":"291.4750","MEAN_ELEMENT_THEORY":"SGP4","LAUNCH_DATE":"2021-11-13","EPOCH":"2022-08-02T10:25:26.500800","OBJECT_NAME":"STARLINK-3161"},{"ARG_OF_PERICENTER":"62.0799","RCS_SIZE":"LARGE","NORAD_CAT_ID":"49423","ECCENTRICITY":"0.00014510","INCLINATION":"53.2186","TLE_LINE2":"2 49423  53.2186  11.8434 0001451  62.0799 298.0339 15.08845488 40126","MEAN_MOTION_DOT":"0.00002577","FILE":"3527804","MEAN_MOTION_DDOT":"0.0000000000000","EPHEMERIS_TYPE":"0","CLASSIFICATION_TYPE":"U","MEAN_MOTION":"15.08845488","TLE_LINE1":"1 49423U 21104R   22214.81337429  .00002577  00000-0  17994-3 0  9992","REV_AT_EPOCH":"4012","PERIOD":"95.437","ELEMENT_SET_NO":"999","RA_OF_ASC_NODE":"11.8434","COUNTRY_CODE":"US","CENTER_NAME":"EARTH","OBJECT_ID":"2021-104R","SITE":"AFETR","SEMIMAJOR_AXIS":"6917.864","OBJECT_TYPE":"PAYLOAD","TIME_SYSTEM":"UTC","PERIAPSIS":"538.725","APOAPSIS":"540.732","REF_FRAME":"TEME","DECAY_DATE":null,"GP_ID":"209456301","MEAN_ELEMENT_THEORY":"SGP4","LAUNCH_DATE":"2021-11-13","EPOCH":"2022-08-02T19:31:15.538656","OBJECT_NAME":"STARLINK-3149","BSTAR":"0.00017994000000","MEAN_ANOMALY":"298.0339"},{"DECAY_DATE":null,"GP_ID":"209457553","MEAN_ANOMALY":"275.4627","BSTAR":"-0.00000949680000","OBJECT_NAME":"STARLINK-3135","EPOCH":"2022-08-02T19:47:09.576960","LAUNCH_DATE":"2021-11-13","MEAN_ELEMENT_THEORY":"SGP4","SEMIMAJOR_AXIS":"6917.886","SITE":"AFETR","OBJECT_ID":"2021-104S","CENTER_NAME":"EARTH","COUNTRY_CODE":"US","REF_FRAME":"TEME","APOAPSIS":"540.775","PERIAPSIS":"538.727","TIME_SYSTEM":"UTC","OBJECT_TYPE":"PAYLOAD","TLE_LINE1":"1 49424U 21104S   22214.82441640 -.00000439  00000-0 -94968-5 0  9990","MEAN_MOTION":"15.08838162","CLASSIFICATION_TYPE":"U","EPHEMERIS_TYPE":"0","MEAN_MOTION_DDOT":"0.0000000000000","FILE":"3527804","RA_OF_ASC_NODE":"11.7884","ELEMENT_SET_NO":"999","PERIOD":"95.438","REV_AT_EPOCH":"4012","NORAD_CAT_ID":"49424","RCS_SIZE":"LARGE","ARG_OF_PERICENTER":"84.6534","MEAN_MOTION_DOT":"-0.00000439","TLE_LINE2":"2 49424  53.2202  11.7884 0001480  84.6534 275.4627 15.08838162 40123","INCLINATION":"53.2202","ECCENTRICITY":"0.00014800"},{"GP_ID":"209457303","DECAY_DATE":null,"EPOCH":"2022-08-02T21:01:20.306208","LAUNCH_DATE":"2021-11-13","MEAN_ELEMENT_THEORY":"SGP4","OBJECT_NAME":"STARLINK-3139","BSTAR":"0.00011808000000","MEAN_ANOMALY":"310.4099","COUNTRY_CODE":"US","OBJECT_ID":"2021-104T","CENTER_NAME":"EARTH","SITE":"AFETR","SEMIMAJOR_AXIS":"6917.872","OBJECT_TYPE":"PAYLOAD","TIME_SYSTEM":"UTC","PERIAPSIS":"538.524","APOAPSIS":"540.950","REF_FRAME":"TEME","FILE":"3527804","MEAN_MOTION_DDOT":"0.0000000000000","EPHEMERIS_TYPE":"0","CLASSIFICATION_TYPE":"U","MEAN_MOTION":"15.08842774","TLE_LINE1":"1 49425U 21104T   22214.87592947  .00001592  00000-0  11808-3 0  9992","REV_AT_EPOCH":"4014","PERIOD":"95.437","RA_OF_ASC_NODE":"11.5589","ELEMENT_SET_NO":"999","ARG_OF_PERICENTER":"49.7046","RCS_SIZE":"LARGE","NORAD_CAT_ID":"49425","ECCENTRICITY":"0.00017540","INCLINATION":"53.2181","TLE_LINE2":"2 49425  53.2181  11.5589 0001754  49.7046 310.4099 15.08842774 40143","MEAN_MOTION_DOT":"0.00001592"},{"CLASSIFICATION_TYPE":"U","EPHEMERIS_TYPE":"0","MEAN_MOTION_DDOT":"0.0000000000000","FILE":"3527804","TLE_LINE1":"1 49426U 21104U   22214.81705440  .00000366  00000-0  41097-4 0  9993","MEAN_MOTION":"15.08839628","REV_AT_EPOCH":"4012","RA_OF_ASC_NODE":"11.8242","ELEMENT_SET_NO":"999","PERIOD":"95.438","RCS_SIZE":"LARGE","ARG_OF_PERICENTER":"58.1206","NORAD_CAT_ID":"49426","INCLINATION":"53.2187","ECCENTRICITY":"0.00017260","MEAN_MOTION_DOT":"0.00000366","TLE_LINE2":"2 49426  53.2187  11.8242 0001726  58.1206 301.9954 15.08839628 40127","GP_ID":"209456051","DECAY_DATE":null,"OBJECT_NAME":"STARLINK-3114","LAUNCH_DATE":"2021-11-13","MEAN_ELEMENT_THEORY":"SGP4","EPOCH":"2022-08-02T19:36:33.500160","MEAN_ANOMALY":"301.9954","BSTAR":"0.00004109700000","CENTER_NAME":"EARTH","OBJECT_ID":"2021-104U","COUNTRY_CODE":"US","SEMIMAJOR_AXIS":"6917.882","SITE":"AFETR","PERIAPSIS":"538.552","TIME_SYSTEM":"UTC","OBJECT_TYPE":"PAYLOAD","REF_FRAME":"TEME","APOAPSIS":"540.941"},{"PERIAPSIS":"538.567","TIME_SYSTEM":"UTC","OBJECT_TYPE":"PAYLOAD","REF_FRAME":"TEME","APOAPSIS":"540.935","CENTER_NAME":"EARTH","OBJECT_ID":"2021-104V","COUNTRY_CODE":"US","SEMIMAJOR_AXIS":"6917.886","SITE":"AFETR","OBJECT_NAME":"STARLINK-3131","EPOCH":"2022-08-02T11:23:44.096352","LAUNCH_DATE":"2021-11-13","MEAN_ELEMENT_THEORY":"SGP4","MEAN_ANOMALY":"310.7623","BSTAR":"-0.00000604150000","GP_ID":"209428837","DECAY_DATE":null,"INCLINATION":"53.2186","ECCENTRICITY":"0.00017120","MEAN_MOTION_DOT":"-0.00000384","TLE_LINE2":"2 49427  53.2186  13.3609 0001712  49.3518 310.7623 15.08838159 40088","RCS_SIZE":"LARGE","ARG_OF_PERICENTER":"49.3518","NORAD_CAT_ID":"49427","REV_AT_EPOCH":"4008","ELEMENT_SET_NO":"999","RA_OF_ASC_NODE":"13.3609","PERIOD":"95.438","CLASSIFICATION_TYPE":"U","EPHEMERIS_TYPE":"0","MEAN_MOTION_DDOT":"0.0000000000000","FILE":"3527697","TLE_LINE1":"1 49427U 21104V   22214.47481593 -.00000384  00000-0 -60415-5 0  9994","MEAN_MOTION":"15.08838159"}];
